ONEWEB-0697             
1 61603U 24188K   25224.60424726  .00000501  00000+0  13785-2 0  9996
2 61603  87.8781  82.5826 0001189  57.0146 303.1096 13.11416320 44002
ONEWEB-0698             
1 61604U 24188L   25224.04785148  .00033410  00000+0  93544-1 0  9998
2 61604  87.8787  82.7071 0000908  78.5442 281.5788 13.11673133 43955
ONEWEB-0699             
1 61605U 24188M   25224.65486575  .00000148  00000+0  38781-3 0  9994
2 61605  87.8784  97.7907 0001445  59.5450 300.5820 13.10370590 42905
ONEWEB-0700             
1 61606U 24188N   25224.65651662  .00000078  00000+0  18652-3 0  9993
2 61606  87.8744  97.6840 0001039  80.8353 279.2892 13.10369826 42894
ONEWEB-0701             
1 61607U 24188P   25224.67310230 -.00000620  00000+0 -18124-2 0  9997
2 61607  87.8778  97.7944 0001278  50.2619 309.8621 13.10373576 42908
ONEWEB-0702             
1 61608U 24188Q   25224.62797305 -.00000461  00000+0 -13359-2 0  9993
2 61608  87.8716  82.5386 0000911  63.1050 297.0171 13.11414734 44046
ONEWEB-0704             
1 61609U 24188R   25224.66149377 -.00000156  00000+0 -48283-3 0  9994
2 61609  87.8802  97.7400 0000836  59.1970 300.9239 13.10370266 42889
ONEWEB-0705             
1 61610U 24188S   25224.66647348 -.00000407  00000+0 -12013-2 0  9997
2 61610  87.8777  97.7789 0001060 124.4496 235.6731 13.10371197 35057
